{"type":"FeatureCollection","attribution":"Routes © OpenStreetMap contributors (openstreetmap.org/copyright), computed with the OSRM public demo server on 2026-10-03.","generated_at":"2026-10-04T00:21:01.598Z","features":[{"type":"Feature","geometry":{"type":"LineString","coordinates":[[-123.001732,49.248227],[-123.00216,49.247956],[-123.003703,49.247945],[-123.00381,49.24906],[-123.004257,49.249121],[-123.004179,49.25525],[-123.003912,49.259785],[-123.003248,49.261474],[-123.003101,49.264446],[-123.006026,49.26445],[-123.006024,49.264948],[-123.005761,49.264948]]},"properties":{"campus":"bcit","kind":"centre","target":"cameray-sas","method":"road","distance_m":2317,"duration_s":266,"straight_km":1.9}},{"type":"Feature","geometry":{"type":"LineString","coordinates":[[-123.001732,49.248227],[-123.003703,49.247945],[-123.004257,49.249121],[-123.004185,49.25467],[-123.023125,49.254794],[-123.023498,49.258248],[-123.047487,49.258243],[-123.054289,49.257497],[-123.0571,49.257923],[-123.061934,49.259504],[-123.094974,49.259763],[-123.098475,49.260197],[-123.119989,49.260474],[-123.11994,49.262325],[-123.122705,49.262372],[-123.122735,49.261898]]},"properties":{"campus":"bcit","kind":"hospital_24h","target":"vch-vgh-sas","method":"road","distance_m":10266,"duration_s":1111,"straight_km":8.9}},{"type":"Feature","geometry":{"type":"LineString","coordinates":[[-123.32272,48.448066],[-123.32264,48.448629],[-123.325461,48.448671],[-123.326184,48.447644],[-123.326531,48.446144],[-123.331424,48.446151],[-123.332365,48.446],[-123.332845,48.445839],[-123.333114,48.445877],[-123.333312,48.446],[-123.33323,48.448152],[-123.343962,48.448347],[-123.344527,48.447244]]},"properties":{"campus":"camosun","kind":"centre","target":"vsac","method":"road","distance_m":2245,"duration_s":270,"straight_km":1.6}},{"type":"Feature","geometry":{"type":"LineString","coordinates":[[-123.32272,48.448066],[-123.32264,48.448629],[-123.325461,48.448671],[-123.326184,48.447644],[-123.326531,48.446144],[-123.321791,48.446109],[-123.322405,48.432167],[-123.325703,48.431515],[-123.325703,48.432063],[-123.326386,48.432114],[-123.326998,48.431861],[-123.326901,48.432369]]},"properties":{"campus":"camosun","kind":"hospital_24h","target":"ih-royal-jubilee","method":"road","distance_m":2949,"duration_s":367,"straight_km":1.7}},{"type":"Feature","geometry":{"type":"LineString","coordinates":[[-123.02057,49.318226],[-123.020427,49.318851],[-123.022606,49.320078],[-123.023868,49.318636],[-123.024106,49.315283],[-123.025167,49.312786],[-123.029128,49.311615],[-123.030042,49.312046],[-123.029125,49.312065],[-123.028095,49.310918],[-123.027954,49.30588],[-123.026562,49.303039],[-123.026277,49.291618],[-123.031162,49.28693],[-123.032066,49.285256],[-123.031579,49.276076],[-123.028649,49.270359],[-123.029709,49.269751],[-123.033306,49.270171],[-123.033785,49.269399],[-123.013667,49.269336],[-123.010021,49.267993],[-123.008785,49.267214],[-123.008766,49.266371],[-123.006023,49.266429],[-123.005761,49.264948]]},"properties":{"campus":"capilano","kind":"centre","target":"cameray-sas","method":"road","distance_m":9351,"duration_s":785,"straight_km":6}},{"type":"Feature","geometry":{"type":"LineString","coordinates":[[-123.02057,49.318226],[-123.020427,49.318851],[-123.022606,49.320078],[-123.023868,49.318636],[-123.024106,49.315283],[-123.025167,49.312786],[-123.029128,49.311615],[-123.03005,49.312011],[-123.029125,49.312065],[-123.028095,49.310918],[-123.027954,49.30588],[-123.026505,49.302504],[-123.026367,49.291232],[-123.031162,49.28693],[-123.032066,49.285256],[-123.031579,49.276076],[-123.028724,49.271028],[-123.02907,49.269935],[-123.033181,49.270193],[-123.033784,49.269543],[-123.081298,49.269697],[-123.100116,49.272893],[-123.100793,49.269154],[-123.109319,49.269267],[-123.116108,49.26612],[-123.119789,49.265952],[-123.119843,49.264211],[-123.121801,49.264244],[-123.121873,49.262357],[-123.122705,49.262372],[-123.122735,49.261898]]},"properties":{"campus":"capilano","kind":"hospital_24h","target":"vch-vgh-sas","method":"road","distance_m":14413,"duration_s":1337,"straight_km":9.7}},{"type":"Feature","geometry":{"type":"LineString","coordinates":[[-122.785519,53.905468],[-122.785778,53.905438],[-122.785923,53.90729],[-122.784743,53.907287],[-122.784707,53.910237],[-122.763481,53.910296],[-122.762623,53.910216],[-122.759653,53.909532],[-122.754931,53.91042],[-122.749096,53.911687],[-122.748372,53.912012],[-122.747358,53.912973],[-122.74383,53.917356],[-122.745369,53.917795],[-122.745268,53.917921]]},"properties":{"campus":"cnc","kind":"centre","target":"pgsac","method":"road","distance_m":3884,"duration_s":337,"straight_km":2.9}},{"type":"Feature","geometry":{"type":"LineString","coordinates":[[-122.785519,53.905468],[-122.656604,53.819548],[-122.674152,53.571595],[-122.544192,53.315399],[-122.352258,53.14484],[-122.356934,53.099446],[-122.512662,52.999438],[-122.440433,52.976103],[-122.411679,52.842345],[-122.468402,52.57459],[-122.404247,52.452302],[-122.297327,52.425073],[-122.246376,52.314922],[-122.115692,52.253774],[-122.078802,52.179568],[-122.146434,52.163039],[-122.127978,52.127338],[-121.937908,52.115818],[-121.906076,52.041062],[-121.734097,51.905705],[-121.331477,51.746751],[-121.291251,51.638479]]},"properties":{"campus":"cnc","kind":"hospital_24h","target":"ih-100-mile","method":"road","distance_m":331534,"duration_s":15998,"straight_km":271.3}},{"type":"Feature","geometry":{"type":"LineString","coordinates":[[-128.633758,54.526664],[-128.54664,54.51198],[-128.438107,54.563206],[-128.382816,54.660451],[-128.263169,54.741355],[-128.282203,54.814026],[-128.378879,54.877335],[-128.392856,54.94932],[-128.278434,55.042923],[-128.080625,55.095859],[-127.840272,55.083716],[-127.652514,55.237856],[-127.549687,55.246547],[-127.392103,55.183128],[-127.327604,54.942611],[-127.109612,54.753347],[-127.109848,54.717768],[-126.852231,54.619075],[-126.740828,54.492067],[-126.710989,54.391381],[-126.642513,54.401392],[-126.464593,54.513347],[-126.386974,54.524558],[-126.227652,54.484216],[-126.178033,54.430386],[-125.978417,54.393706],[-125.759908,54.227056],[-125.491849,54.188282],[-125.332665,54.101991],[-125.03865,54.088376],[-124.894331,54.046189],[-124.547885,54.061008],[-124.388766,54.027157],[-124.006751,54.013873],[-123.956638,53.953666],[-123.768692,53.947909],[-123.008661,53.80795],[-122.844715,53.83136],[-122.745268,53.917921]]},"properties":{"campus":"coast-mountain","kind":"centre","target":"pgsac","method":"road","distance_m":580295,"duration_s":28390,"straight_km":388.6}},{"type":"Feature","geometry":{"type":"LineString","coordinates":[[-128.633758,54.526664],[-128.54664,54.51198],[-128.438107,54.563206],[-128.382816,54.660451],[-128.263169,54.741355],[-128.282203,54.814026],[-128.378879,54.877335],[-128.392856,54.94932],[-128.278434,55.042923],[-128.080625,55.095859],[-127.840272,55.083716],[-127.652514,55.237856],[-127.549687,55.246547],[-127.392103,55.183128],[-127.327604,54.942611],[-127.109612,54.753347],[-127.109848,54.717768],[-126.852231,54.619075],[-126.740828,54.492067],[-126.710989,54.391381],[-126.642513,54.401392],[-126.464593,54.513347],[-126.386974,54.524558],[-126.227652,54.484216],[-126.178033,54.430386],[-125.978417,54.393706],[-125.759908,54.227056],[-125.491849,54.188282],[-125.332665,54.101991],[-125.03865,54.088376],[-124.894331,54.046189],[-124.547885,54.061008],[-124.388766,54.027157],[-124.006751,54.013873],[-123.956638,53.953666],[-123.768692,53.947909],[-123.008661,53.80795],[-122.846865,53.830568],[-122.750905,53.892672],[-122.656534,53.81935],[-122.674283,53.572675],[-122.63594,53.481247],[-122.542761,53.313535],[-122.352258,53.14484],[-122.356934,53.099446],[-122.512662,52.999438],[-122.440433,52.976103],[-122.411679,52.842345],[-122.468402,52.57459],[-122.404247,52.452302],[-122.297327,52.425073],[-122.246376,52.314922],[-122.115692,52.253774],[-122.078802,52.179568],[-122.146434,52.163039],[-122.127978,52.127338],[-121.937908,52.115818],[-121.906076,52.041062],[-121.734097,51.905705],[-121.331477,51.746751],[-121.291251,51.638479]]},"properties":{"campus":"coast-mountain","kind":"hospital_24h","target":"ih-100-mile","method":"road","distance_m":905647,"duration_s":43937,"straight_km":585.7}},{"type":"Feature","geometry":{"type":"LineString","coordinates":[[-115.743,49.517025],[-115.733422,49.54681],[-115.682551,49.573104],[-115.684059,49.592934],[-115.626114,49.623507],[-115.768465,49.810552],[-115.725232,49.864228],[-115.76129,49.962206],[-115.757367,50.098981],[-115.80248,50.149349],[-115.855504,50.172572],[-115.901698,50.308374],[-115.860651,50.327114],[-115.86251,50.358415],[-115.983929,50.471519],[-116.082422,50.653291],[-116.218024,50.793379],[-116.471039,50.997829],[-116.587609,51.044062],[-116.870624,51.194208],[-117.060136,51.426675],[-117.164152,51.48599],[-117.223803,51.49601],[-117.224886,51.474792],[-117.296627,51.493903],[-117.361033,51.479933],[-117.435582,51.511938],[-117.460575,51.502503],[-117.482343,51.475718],[-117.47921,51.432956],[-117.434262,51.345572],[-117.446473,51.329796],[-117.51473,51.312213],[-117.504227,51.269518],[-117.66251,51.237054],[-117.785309,51.168122],[-117.879942,51.137255],[-117.950949,51.047436],[-118.141901,50.992025],[-118.213766,51.010396],[-118.473052,50.927695],[-118.524784,50.976229],[-118.59018,50.971205],[-118.67805,51.00177],[-118.775367,50.946586],[-118.83478,50.890275],[-118.912349,50.882372],[-118.964868,50.838804],[-119.017406,50.830049],[-119.079947,50.78946],[-119.12653,50.794867],[-119.170324,50.781835],[-119.22634,50.747049],[-119.234535,50.707598],[-119.328676,50.694141],[-119.329694,50.8433],[-119.394802,50.878763],[-119.471375,50.876916],[-119.519692,50.892727],[-119.670486,50.826558],[-119.817832,50.684792],[-119.90607,50.645547],[-120.268277,50.680546],[-120.324273,50.675119]]},"properties":{"campus":"cotr","kind":"centre","target":"ksacc","method":"road","distance_m":607127,"duration_s":30284,"straight_km":351.2}},{"type":"Feature","geometry":{"type":"LineString","coordinates":[[-115.743,49.517025],[-115.743094,49.517026],[-115.743255,49.516841],[-115.743276,49.516413],[-115.745524,49.516414],[-115.745934,49.516337],[-115.746161,49.516194],[-115.746581,49.515362],[-115.746609,49.514323],[-115.746724,49.514032],[-115.747094,49.513854],[-115.749058,49.513848],[-115.748779,49.512497],[-115.74935,49.51244],[-115.749424,49.512374]]},"properties":{"campus":"cotr","kind":"hospital_24h","target":"ih-east-kootenay","method":"road","distance_m":920,"duration_s":156,"straight_km":0.8}},{"type":"Feature","geometry":{"type":"LineString","coordinates":[[-122.913857,49.203443],[-122.914607,49.203719],[-122.900843,49.210816],[-122.8854,49.205955],[-122.874081,49.205959],[-122.866708,49.206293],[-122.861182,49.20719],[-122.858438,49.207012],[-122.856284,49.206123],[-122.846763,49.199679],[-122.845398,49.196914],[-122.845719,49.140884],[-122.849935,49.140884],[-122.849536,49.141382]]},"properties":{"campus":"douglas","kind":"centre","target":"diversecity-svss","method":"road","distance_m":12738,"duration_s":1064,"straight_km":8.3}},{"type":"Feature","geometry":{"type":"LineString","coordinates":[[-122.913857,49.203443],[-122.914607,49.203719],[-122.900843,49.210816],[-122.885725,49.205986],[-122.867328,49.206246],[-122.860772,49.207213],[-122.857445,49.206704],[-122.847327,49.200156],[-122.845757,49.198309],[-122.845928,49.174681],[-122.843169,49.174689],[-122.843148,49.175553]]},"properties":{"campus":"douglas","kind":"hospital_24h","target":"fh-surrey-memorial","method":"road","distance_m":8879,"duration_s":776,"straight_km":6}},{"type":"Feature","geometry":{"type":"LineString","coordinates":[[-123.092174,49.267992],[-123.090828,49.267859],[-123.090834,49.266782],[-123.089115,49.266692],[-123.081491,49.265246],[-123.077468,49.265187],[-123.077645,49.262332],[-123.059016,49.262248],[-123.055561,49.261938],[-123.032571,49.261832],[-123.030349,49.262315],[-123.02577,49.264933],[-123.022905,49.265605],[-123.006023,49.266429],[-123.006024,49.264948],[-123.005761,49.264948]]},"properties":{"campus":"ecuad","kind":"centre","target":"cameray-sas","method":"road","distance_m":7091,"duration_s":756,"straight_km":6.3}},{"type":"Feature","geometry":{"type":"LineString","coordinates":[[-123.092174,49.267992],[-123.090828,49.267859],[-123.090834,49.266782],[-123.095573,49.266814],[-123.096327,49.266902],[-123.097174,49.267185],[-123.100091,49.268915],[-123.101061,49.26921],[-123.109319,49.269267],[-123.116108,49.26612],[-123.116844,49.265962],[-123.119789,49.265952],[-123.119843,49.264211],[-123.121801,49.264244],[-123.121873,49.262357],[-123.122705,49.262372],[-123.122735,49.261898]]},"properties":{"campus":"ecuad","kind":"hospital_24h","target":"vch-vgh-sas","method":"road","distance_m":3201,"duration_s":401,"straight_km":2.3}},{"type":"Feature","geometry":{"type":"LineString","coordinates":[[-122.909612,49.221722],[-122.910384,49.221197],[-122.913351,49.223504],[-122.916926,49.224723],[-122.90133,49.233131],[-122.906752,49.237556],[-122.907182,49.23947],[-122.906737,49.241494],[-122.909484,49.243334],[-122.911825,49.2458],[-122.914317,49.246214],[-122.915378,49.244978],[-122.91611,49.242262],[-122.922007,49.238658],[-122.926373,49.237069],[-122.932609,49.236458],[-122.946878,49.237686],[-122.963884,49.242115],[-122.966614,49.24321],[-122.968855,49.244954],[-122.977728,49.254959],[-122.981428,49.2572],[-122.985423,49.257931],[-123.005407,49.257984],[-123.00549,49.258816],[-123.003908,49.258977],[-123.003101,49.264446],[-123.006026,49.26445],[-123.005761,49.264948]]},"properties":{"campus":"jibc","kind":"centre","target":"cameray-sas","method":"road","distance_m":13402,"duration_s":992,"straight_km":8.4}},{"type":"Feature","geometry":{"type":"LineString","coordinates":[[-122.909612,49.221722],[-122.910384,49.221197],[-122.912669,49.222553],[-122.901493,49.214016],[-122.900616,49.211724],[-122.899152,49.210366],[-122.8854,49.205955],[-122.874081,49.205959],[-122.866708,49.206293],[-122.861182,49.20719],[-122.858767,49.207079],[-122.856742,49.2064],[-122.847327,49.200156],[-122.846095,49.198913],[-122.845398,49.196914],[-122.845928,49.174681],[-122.843169,49.174689],[-122.843148,49.175553]]},"properties":{"campus":"jibc","kind":"hospital_24h","target":"fh-surrey-memorial","method":"road","distance_m":9470,"duration_s":845,"straight_km":7.1}},{"type":"Feature","geometry":{"type":"LineString","coordinates":[[-122.869732,49.132454],[-122.869474,49.13245],[-122.869471,49.132622],[-122.86778,49.132628],[-122.867916,49.141032],[-122.849935,49.140884],[-122.849931,49.141391],[-122.849536,49.141382]]},"properties":{"campus":"kpu","kind":"centre","target":"diversecity-svss","method":"road","distance_m":2495,"duration_s":235,"straight_km":1.8}},{"type":"Feature","geometry":{"type":"LineString","coordinates":[[-122.869732,49.132454],[-122.86778,49.132628],[-122.867916,49.141032],[-122.856775,49.140942],[-122.856917,49.162642],[-122.845741,49.162718],[-122.845742,49.174679],[-122.843169,49.174689],[-122.843148,49.175553]]},"properties":{"campus":"kpu","kind":"hospital_24h","target":"fh-surrey-memorial","method":"road","distance_m":6756,"duration_s":579,"straight_km":5.3}},{"type":"Feature","geometry":{"type":"LineString","coordinates":[[-123.108565,49.225828],[-123.077218,49.225265],[-123.076951,49.232657],[-123.048139,49.232794],[-123.037007,49.233245],[-123.026094,49.244262],[-123.02359,49.244718],[-123.023494,49.263648],[-123.017146,49.263935],[-123.015303,49.264501],[-123.006026,49.26445],[-123.005761,49.264948]]},"properties":{"campus":"langara","kind":"centre","target":"cameray-sas","method":"road","distance_m":11186,"duration_s":1140,"straight_km":8.7}},{"type":"Feature","geometry":{"type":"LineString","coordinates":[[-123.108565,49.225828],[-123.11638,49.226153],[-123.115899,49.238233],[-123.118321,49.240972],[-123.118022,49.24292],[-123.11536,49.245172],[-123.114993,49.260408],[-123.119989,49.260474],[-123.11994,49.262325],[-123.122705,49.262372],[-123.122735,49.261898]]},"properties":{"campus":"langara","kind":"hospital_24h","target":"vch-vgh-sas","method":"road","distance_m":5337,"duration_s":601,"straight_km":4.2}},{"type":"Feature","geometry":{"type":"LineString","coordinates":[[-124.97174,49.710682],[-124.970814,49.707681],[-124.989076,49.698217],[-125.008423,49.711123],[-125.016984,49.710585],[-125.051597,49.694703],[-125.087183,49.698736],[-125.09744,49.722036],[-125.118628,49.741787],[-125.13846,49.769883],[-125.144332,49.788978],[-125.182759,49.819634],[-125.195023,49.83515],[-125.218769,49.844039],[-125.246335,49.861561],[-125.26872,49.882926],[-125.274211,49.905192],[-125.249971,49.946306],[-125.280505,49.996587],[-125.281964,50.024574],[-125.273944,50.029048],[-125.264449,50.028942],[-125.257494,50.023195],[-125.246285,50.025053]]},"properties":{"campus":"nic","kind":"centre","target":"crfs-sas","method":"road","distance_m":56394,"duration_s":3007,"straight_km":40.1}},{"type":"Feature","geometry":{"type":"LineString","coordinates":[[-124.97174,49.710682],[-124.972324,49.710682],[-124.972551,49.710554],[-124.973189,49.710592],[-124.973781,49.710523],[-124.973875,49.710483],[-124.973845,49.709617],[-124.972653,49.709621],[-124.972455,49.709565],[-124.972256,49.709635],[-124.971961,49.709628],[-124.971349,49.70969],[-124.970373,49.709669],[-124.969462,49.709684],[-124.969456,49.710604],[-124.967323,49.711723],[-124.967822,49.71211],[-124.968002,49.712149],[-124.968131,49.712135],[-124.968501,49.711945],[-124.969286,49.712561]]},"properties":{"campus":"nic","kind":"hospital_24h","target":"ih-north-island-comox","method":"road","distance_m":1080,"duration_s":230,"straight_km":0.3}},{"type":"Feature","geometry":{"type":"LineString","coordinates":[[-120.22967,55.74656],[-120.230766,55.74656],[-120.230766,55.747282],[-120.23347,55.747274],[-120.234635,55.7476],[-120.237333,55.747611],[-120.237352,55.752225],[-120.236517,55.752455],[-120.233925,55.753591],[-120.234222,55.753799],[-120.235079,55.754042],[-120.2368,55.754242],[-120.237517,55.754732],[-120.237564,55.761236],[-120.236838,55.761025]]},"properties":{"campus":"nlc","kind":"centre","target":"spcrs-stv","method":"road","distance_m":2399,"duration_s":302,"straight_km":1.6}},{"type":"Feature","geometry":{"type":"LineString","coordinates":[[-120.22967,55.74656],[-120.253573,55.766775],[-120.604099,55.752484],[-120.664456,55.781234],[-120.988394,55.781295],[-121.097833,55.766081],[-121.189001,55.710811],[-121.214107,55.733402],[-121.530293,55.678841],[-121.631692,55.697425],[-121.828136,55.618029],[-122.032658,55.60798],[-122.202788,55.648743],[-122.508524,55.51866],[-122.586852,55.50081],[-122.74803,55.517347],[-122.785119,55.470132],[-122.636487,55.405154],[-122.604104,55.361842],[-122.732793,55.202118],[-122.825175,55.139547],[-122.97386,55.118328],[-123.030256,55.060142],[-123.031977,54.980131],[-122.922343,54.901448],[-122.768362,54.666558],[-122.701158,54.624147],[-122.709373,54.540288],[-122.643353,54.439146],[-122.609401,54.167818],[-122.801156,54.000337],[-122.758169,53.935683],[-122.781377,53.901757],[-122.656534,53.81935],[-122.674283,53.572675],[-122.63594,53.481247],[-122.542761,53.313535],[-122.352258,53.14484],[-122.356934,53.099446],[-122.512662,52.999438],[-122.440433,52.976103],[-122.411502,52.841216],[-122.461804,52.553336],[-122.395334,52.439624],[-122.297327,52.425073],[-122.246376,52.314922],[-122.095414,52.229029],[-122.078934,52.179053],[-122.146434,52.163039],[-122.127978,52.127338],[-121.937908,52.115818],[-121.906076,52.041062],[-121.734097,51.905705],[-121.331477,51.746751],[-121.291251,51.638479]]},"properties":{"campus":"nlc","kind":"hospital_24h","target":"ih-100-mile","method":"road","distance_m":738102,"duration_s":34425,"straight_km":462.1}},{"type":"Feature","geometry":{"type":"LineString","coordinates":[[-120.767244,50.12435],[-120.75641,50.121585],[-120.743487,50.128789],[-120.704226,50.16842],[-120.681577,50.183715],[-120.676593,50.193472],[-120.652215,50.205492],[-120.644072,50.221736],[-120.629538,50.231996],[-120.630695,50.259721],[-120.62573,50.269023],[-120.641616,50.307721],[-120.626492,50.350257],[-120.621416,50.414857],[-120.593929,50.444197],[-120.589067,50.462949],[-120.558817,50.484088],[-120.500867,50.494552],[-120.478278,50.531951],[-120.460029,50.542041],[-120.450049,50.553279],[-120.451122,50.566157],[-120.477313,50.592876],[-120.471622,50.618876],[-120.484257,50.636323],[-120.484659,50.651026],[-120.449433,50.666558],[-120.417901,50.665442],[-120.373925,50.652675],[-120.354499,50.661804],[-120.352553,50.672944],[-120.327168,50.671317],[-120.324273,50.675119]]},"properties":{"campus":"nvit","kind":"centre","target":"ksacc","method":"road","distance_m":85284,"duration_s":3553,"straight_km":68.8}},{"type":"Feature","geometry":{"type":"LineString","coordinates":[[-120.767244,50.12435],[-120.767112,50.124417],[-120.766952,50.124332],[-120.766833,50.124428],[-120.766527,50.1248],[-120.766445,50.124839],[-120.766232,50.124835],[-120.765671,50.124587],[-120.764851,50.124415],[-120.764483,50.12428],[-120.764206,50.124108],[-120.763973,50.123898],[-120.76382,50.123609],[-120.763996,50.123438],[-120.764306,50.123262],[-120.765589,50.123056],[-120.76657,50.122792],[-120.772196,50.121085],[-120.772507,50.121608],[-120.772459,50.121871],[-120.772544,50.122307],[-120.773362,50.122183]]},"properties":{"campus":"nvit","kind":"hospital_24h","target":"ih-nicola-valley","method":"road","distance_m":1210,"duration_s":176,"straight_km":0.5}},{"type":"Feature","geometry":{"type":"LineString","coordinates":[[-119.481018,49.861902],[-119.49615,49.883631],[-119.521375,49.8779],[-119.53045,49.885255],[-119.563852,49.863974],[-119.58959,49.860557],[-119.624142,49.830043],[-119.645305,49.827603],[-119.66479,49.805633],[-119.698725,49.800344],[-119.77885,49.818162],[-119.879588,49.870808],[-119.936465,49.870002],[-119.937625,49.892323],[-120.033972,49.911381],[-120.164243,49.89916],[-120.202615,49.884263],[-120.24478,49.881507],[-120.297695,49.867351],[-120.327486,49.890541],[-120.364824,49.897413],[-120.45815,49.882537],[-120.51684,49.912552],[-120.551181,49.941848],[-120.575777,49.940578],[-120.588135,49.954231],[-120.616217,49.950172],[-120.606437,50.004782],[-120.661455,50.060687],[-120.6775,50.097719],[-120.745237,50.089776],[-120.76081,50.119077],[-120.629538,50.231996],[-120.62573,50.269023],[-120.641616,50.307721],[-120.626492,50.350257],[-120.621416,50.414857],[-120.593929,50.444197],[-120.589067,50.462949],[-120.558817,50.484088],[-120.500867,50.494552],[-120.478278,50.531951],[-120.450049,50.553279],[-120.451122,50.566157],[-120.477313,50.592876],[-120.471622,50.618876],[-120.484659,50.651026],[-120.449433,50.666558],[-120.417901,50.665442],[-120.373925,50.652675],[-120.354499,50.661804],[-120.352553,50.672944],[-120.324273,50.675119]]},"properties":{"campus":"okanagan","kind":"centre","target":"ksacc","method":"road","distance_m":213816,"duration_s":9335,"straight_km":108.5}},{"type":"Feature","geometry":{"type":"LineString","coordinates":[[-119.481018,49.861902],[-119.481021,49.862173],[-119.483574,49.862183],[-119.483564,49.861039],[-119.485232,49.861031],[-119.486036,49.86119],[-119.488233,49.861952],[-119.488255,49.872776],[-119.49032,49.872687],[-119.49274,49.872777]]},"properties":{"campus":"okanagan","kind":"hospital_24h","target":"ih-kelowna-general","method":"road","distance_m":2229,"duration_s":233,"straight_km":1.5}},{"type":"Feature","geometry":{"type":"LineString","coordinates":[[-123.480519,48.43078],[-123.478248,48.431735],[-123.47673,48.433216],[-123.477306,48.433555],[-123.475377,48.435199],[-123.476772,48.436705],[-123.475891,48.437543],[-123.474821,48.437726],[-123.477262,48.439918],[-123.470475,48.441197],[-123.466883,48.445224],[-123.462531,48.453042],[-123.459129,48.456099],[-123.457767,48.458676],[-123.453109,48.461217],[-123.448585,48.461896],[-123.431976,48.463836],[-123.416906,48.464041],[-123.409836,48.461045],[-123.405274,48.459758],[-123.396904,48.458084],[-123.39007,48.457979],[-123.37793,48.455133],[-123.375933,48.453679],[-123.370748,48.445045],[-123.345794,48.44838],[-123.343962,48.448347],[-123.344527,48.447244]]},"properties":{"campus":"rru","kind":"centre","target":"vsac","method":"road","distance_m":13825,"duration_s":1220,"straight_km":10.1}},{"type":"Feature","geometry":{"type":"LineString","coordinates":[[-123.480519,48.43078],[-123.478248,48.431735],[-123.47673,48.433216],[-123.477306,48.433555],[-123.475377,48.435199],[-123.476772,48.436705],[-123.475891,48.437543],[-123.474821,48.437726],[-123.477262,48.439918],[-123.47032,48.441327],[-123.466883,48.445224],[-123.462531,48.453042],[-123.459129,48.456099],[-123.457506,48.458921],[-123.452787,48.461322],[-123.431138,48.46348],[-123.428673,48.466441],[-123.430337,48.468288],[-123.432223,48.466534]]},"properties":{"campus":"rru","kind":"hospital_24h","target":"ih-victoria-general","method":"road","distance_m":7130,"duration_s":765,"straight_km":5.3}},{"type":"Feature","geometry":{"type":"LineString","coordinates":[[-117.646673,49.307701],[-117.638515,49.293883],[-117.656537,49.298564],[-117.682562,49.271013],[-117.774106,49.297747],[-117.850854,49.298524],[-117.901905,49.289483],[-117.974281,49.242152],[-118.043881,49.257517],[-118.059267,49.225667],[-118.079048,49.218442],[-118.097078,49.2298],[-118.109205,49.210922],[-118.103409,49.152684],[-118.195607,49.1335],[-118.229585,49.105316],[-118.205778,49.04382],[-118.223012,49.018934],[-118.264467,49.007778],[-118.435045,49.034511],[-118.53488,49.002383],[-118.547696,49.062877],[-118.529708,49.150038],[-118.546085,49.154132],[-118.660658,49.126157],[-118.696531,49.042717],[-118.760815,49.004818],[-118.849209,49.014978],[-118.90166,49.048096],[-118.989196,49.050791],[-119.006163,49.076855],[-118.975101,49.170106],[-119.013552,49.216874],[-119.003469,49.251606],[-119.03988,49.332382],[-119.08338,49.343509],[-119.094998,49.364003],[-119.078426,49.445988],[-119.124065,49.497025],[-119.08011,49.531367],[-119.05415,49.596611],[-119.05998,49.63938],[-119.125879,49.740385],[-119.084765,49.809112],[-119.08868,49.836693],[-119.155523,49.868223],[-119.31562,49.860984],[-119.366162,49.86942],[-119.386919,49.889053],[-119.384566,49.966872],[-119.412104,50.051964],[-119.399009,50.108936],[-119.364096,50.170197],[-119.289743,50.221174],[-119.242753,50.340251],[-119.294197,50.360844],[-119.378018,50.459926],[-119.491234,50.452754],[-119.554542,50.500379],[-119.675814,50.463045],[-119.822377,50.478599],[-119.836094,50.530064],[-119.8857,50.559231],[-119.892213,50.610499],[-119.951012,50.649383],[-120.268277,50.680546],[-120.324273,50.675119]]},"properties":{"campus":"selkirk","kind":"centre","target":"ksacc","method":"road","distance_m":461147,"duration_s":23731,"straight_km":244.4}},{"type":"Feature","geometry":{"type":"LineString","coordinates":[[-117.646673,49.307701],[-117.638264,49.30517],[-117.638201,49.294673],[-117.648766,49.295576],[-117.650612,49.297765],[-117.653323,49.294978],[-117.64866,49.277211],[-117.649271,49.267592],[-117.660056,49.254747],[-117.671428,49.23291],[-117.68112,49.223294],[-117.691355,49.222529],[-117.691108,49.214831],[-117.706171,49.208415],[-117.71393,49.199342],[-117.716376,49.187926],[-117.725968,49.175734],[-117.735344,49.155977],[-117.733746,49.151185],[-117.74003,49.140031],[-117.74139,49.122869],[-117.731968,49.11494],[-117.725296,49.101696],[-117.713179,49.096178],[-117.703412,49.099747],[-117.704464,49.101373],[-117.698906,49.103795],[-117.701243,49.103577]]},"properties":{"campus":"selkirk","kind":"hospital_24h","target":"ih-kootenay-boundary","method":"road","distance_m":30962,"duration_s":1869,"straight_km":23}},{"type":"Feature","geometry":{"type":"LineString","coordinates":[[-122.917717,49.276705],[-122.920966,49.277931],[-122.925238,49.276939],[-122.929567,49.277194],[-122.930955,49.276211],[-122.927608,49.274603],[-122.927595,49.273945],[-122.933583,49.273863],[-122.942725,49.275712],[-122.951284,49.280399],[-122.991498,49.28017],[-122.994195,49.280963],[-123.003117,49.281017],[-123.003282,49.264443],[-123.006026,49.26445],[-123.005761,49.264948]]},"properties":{"campus":"sfu","kind":"centre","target":"cameray-sas","method":"road","distance_m":9373,"duration_s":869,"straight_km":6.5}},{"type":"Feature","geometry":{"type":"LineString","coordinates":[[-122.917717,49.276705],[-122.920966,49.277931],[-122.925238,49.276939],[-122.929567,49.277194],[-122.930985,49.276301],[-122.925733,49.273594],[-122.922204,49.270256],[-122.91266,49.265781],[-122.908859,49.265531],[-122.902259,49.267658],[-122.899077,49.265925],[-122.899938,49.264368],[-122.910342,49.259308],[-122.912207,49.257312],[-122.912872,49.24821],[-122.914169,49.246178],[-122.911311,49.245516],[-122.907006,49.24166],[-122.90702,49.237779],[-122.90437,49.235603],[-122.915142,49.22973],[-122.908487,49.224309],[-122.912079,49.222431],[-122.901493,49.214016],[-122.899152,49.210366],[-122.8854,49.205955],[-122.858767,49.207079],[-122.847327,49.200156],[-122.845398,49.196914],[-122.845928,49.174681],[-122.843169,49.174689],[-122.843148,49.175553]]},"properties":{"campus":"sfu","kind":"hospital_24h","target":"fh-surrey-memorial","method":"road","distance_m":19418,"duration_s":1678,"straight_km":12.5}},{"type":"Feature","geometry":{"type":"LineString","coordinates":[[-120.363544,50.67245],[-120.363465,50.672581],[-120.363091,50.672687],[-120.362733,50.672485],[-120.362426,50.672564],[-120.361567,50.672408],[-120.36151,50.672639],[-120.361317,50.672724],[-120.359743,50.672392],[-120.358776,50.671191],[-120.358421,50.670004],[-120.35784,50.668843],[-120.356943,50.669072],[-120.355323,50.669788],[-120.354399,50.669904],[-120.35432,50.671269],[-120.353919,50.671941],[-120.353344,50.672481],[-120.352088,50.673136],[-120.349417,50.673882],[-120.348139,50.673825],[-120.343936,50.672026],[-120.341549,50.671469],[-120.340448,50.671389],[-120.327168,50.671317],[-120.327139,50.674928],[-120.324274,50.674919],[-120.324273,50.675119]]},"properties":{"campus":"tru","kind":"centre","target":"ksacc","method":"road","distance_m":3938,"duration_s":373,"straight_km":2.8}},{"type":"Feature","geometry":{"type":"LineString","coordinates":[[-120.363544,50.67245],[-120.363465,50.672581],[-120.363091,50.672687],[-120.362733,50.672485],[-120.362426,50.672564],[-120.361567,50.672408],[-120.36151,50.672639],[-120.361317,50.672724],[-120.359743,50.672392],[-120.358776,50.671191],[-120.358421,50.670004],[-120.35784,50.668843],[-120.356943,50.669072],[-120.355323,50.669788],[-120.354399,50.669904],[-120.354443,50.670782],[-120.354158,50.671613],[-120.353672,50.672211],[-120.352849,50.672797],[-120.351573,50.673297],[-120.349018,50.673921],[-120.347814,50.67372],[-120.344288,50.672164],[-120.342504,50.67162],[-120.340448,50.671389],[-120.335534,50.671359],[-120.335134,50.6711],[-120.335703,50.670811],[-120.335943,50.670539],[-120.336086,50.669465],[-120.335156,50.6693],[-120.334996,50.669587],[-120.334361,50.669546],[-120.334313,50.66941],[-120.335008,50.669447],[-120.335066,50.669558],[-120.334298,50.669552],[-120.334277,50.669842]]},"properties":{"campus":"tru","kind":"hospital_24h","target":"ih-royal-inland","method":"road","distance_m":3294,"duration_s":388,"straight_km":2.1}},{"type":"Feature","geometry":{"type":"LineString","coordinates":[[-119.399012,49.942194],[-119.392039,49.936161],[-119.38439,49.964095],[-119.404144,49.994955],[-119.412104,50.051964],[-119.398829,50.109478],[-119.364096,50.170197],[-119.289924,50.220913],[-119.24109,50.332795],[-119.242753,50.340251],[-119.26445,50.341006],[-119.269989,50.35887],[-119.294197,50.360844],[-119.320912,50.40851],[-119.359518,50.433237],[-119.374231,50.458161],[-119.424355,50.461561],[-119.454956,50.448066],[-119.491234,50.452754],[-119.554542,50.500379],[-119.578109,50.499475],[-119.675814,50.463045],[-119.735352,50.461205],[-119.793182,50.481985],[-119.821822,50.478414],[-119.833375,50.490061],[-119.836094,50.530064],[-119.8857,50.559231],[-119.892213,50.610499],[-119.950091,50.637071],[-119.950706,50.649273],[-120.066078,50.653514],[-120.268277,50.680546],[-120.297623,50.67317],[-120.324273,50.675119]]},"properties":{"campus":"ubc-okanagan","kind":"centre","target":"ksacc","method":"road","distance_m":159285,"duration_s":8736,"straight_km":104.7}},{"type":"Feature","geometry":{"type":"LineString","coordinates":[[-119.399012,49.942194],[-119.398831,49.938903],[-119.40163,49.938537],[-119.409923,49.943535],[-119.426577,49.94808],[-119.432163,49.939693],[-119.435402,49.927054],[-119.443512,49.919484],[-119.452598,49.906313],[-119.454374,49.89921],[-119.454649,49.888967],[-119.462152,49.886385],[-119.4622,49.884681],[-119.465764,49.88233],[-119.465831,49.876905],[-119.491241,49.876346],[-119.491244,49.873046],[-119.49274,49.872777]]},"properties":{"campus":"ubc-okanagan","kind":"hospital_24h","target":"ih-kelowna-general","method":"road","distance_m":13935,"duration_s":1061,"straight_km":10.2}},{"type":"Feature","geometry":{"type":"LineString","coordinates":[[-123.233716,49.248486],[-123.231554,49.24704],[-123.236064,49.255696],[-123.225592,49.258417],[-123.139022,49.257062],[-123.135101,49.257937],[-123.131814,49.257094],[-123.101231,49.256585],[-123.10097,49.262911],[-123.032571,49.261832],[-123.022905,49.265605],[-123.006023,49.266429],[-123.005761,49.264948]]},"properties":{"campus":"ubc-vancouver","kind":"centre","target":"cameray-sas","method":"road","distance_m":19220,"duration_s":1981,"straight_km":16.7}},{"type":"Feature","geometry":{"type":"LineString","coordinates":[[-123.233716,49.248486],[-123.232596,49.248077],[-123.232578,49.247313],[-123.231554,49.24704],[-123.23301,49.251309],[-123.236064,49.255696],[-123.231301,49.257445],[-123.226974,49.258315],[-123.162668,49.257441],[-123.162566,49.260223],[-123.141175,49.259881],[-123.141107,49.261758],[-123.126675,49.261528],[-123.126639,49.262451],[-123.122705,49.262372],[-123.122735,49.261898]]},"properties":{"campus":"ubc-vancouver","kind":"hospital_24h","target":"vch-vgh-sas","method":"road","distance_m":10305,"duration_s":1075,"straight_km":8.2}},{"type":"Feature","geometry":{"type":"LineString","coordinates":[[-122.285872,49.028386],[-122.286025,49.02828],[-122.286612,49.028641],[-122.286017,49.029539],[-122.286242,49.030372],[-122.286217,49.031363],[-122.290518,49.031276],[-122.29055,49.032326],[-122.290749,49.032675],[-122.292468,49.033479],[-122.292755,49.034527],[-122.292511,49.034979],[-122.293235,49.035984],[-122.293453,49.045355],[-122.293066,49.045612],[-122.290382,49.04561],[-122.290382,49.04608]]},"properties":{"campus":"ufv","kind":"centre","target":"archway-sarp","method":"road","distance_m":2653,"duration_s":313,"straight_km":2}},{"type":"Feature","geometry":{"type":"LineString","coordinates":[[-122.285872,49.028386],[-122.286025,49.02828],[-122.286612,49.028641],[-122.286017,49.029539],[-122.286242,49.030372],[-122.286217,49.031363],[-122.290518,49.031276],[-122.29055,49.032326],[-122.290749,49.032675],[-122.292468,49.033479],[-122.292755,49.034527],[-122.292511,49.034979],[-122.293235,49.035984],[-122.293315,49.039034],[-122.304558,49.038304],[-122.312513,49.038167],[-122.312512,49.037427],[-122.312713,49.037235],[-122.313128,49.037117],[-122.314381,49.037123],[-122.314382,49.036911],[-122.313496,49.036907],[-122.313498,49.036758]]},"properties":{"campus":"ufv","kind":"hospital_24h","target":"fh-abbotsford-regional","method":"road","distance_m":3408,"duration_s":426,"straight_km":2.3}},{"type":"Feature","geometry":{"type":"LineString","coordinates":[[-122.814629,53.892611],[-122.815355,53.893107],[-122.816025,53.890681],[-122.814367,53.890428],[-122.814628,53.889144],[-122.813675,53.888153],[-122.813543,53.887313],[-122.811019,53.887448],[-122.809296,53.888233],[-122.808791,53.888948],[-122.808524,53.89383],[-122.809236,53.896113],[-122.811803,53.899682],[-122.815875,53.90834],[-122.815463,53.909428],[-122.814406,53.910057],[-122.813098,53.910288],[-122.763978,53.910303],[-122.762623,53.910216],[-122.759997,53.909545],[-122.759225,53.909564],[-122.748541,53.911891],[-122.747358,53.912973],[-122.74383,53.917356],[-122.745369,53.917795],[-122.745268,53.917921]]},"properties":{"campus":"unbc","kind":"centre","target":"pgsac","method":"road","distance_m":8908,"duration_s":699,"straight_km":5.3}},{"type":"Feature","geometry":{"type":"LineString","coordinates":[[-122.814629,53.892611],[-122.792973,53.869087],[-122.750905,53.892672],[-122.656908,53.820131],[-122.674283,53.572675],[-122.63623,53.481819],[-122.542761,53.313535],[-122.352258,53.14484],[-122.356934,53.099446],[-122.512662,52.999438],[-122.440433,52.976103],[-122.411679,52.842345],[-122.468402,52.57459],[-122.404247,52.452302],[-122.297327,52.425073],[-122.246376,52.314922],[-122.115692,52.253774],[-122.078802,52.179568],[-122.146434,52.163039],[-122.127978,52.127338],[-121.937908,52.115818],[-121.906076,52.041062],[-121.734097,51.905705],[-121.331477,51.746751],[-121.291251,51.638479]]},"properties":{"campus":"unbc","kind":"hospital_24h","target":"ih-100-mile","method":"road","distance_m":337311,"duration_s":16463,"straight_km":270.8}},{"type":"Feature","geometry":{"type":"LineString","coordinates":[[-123.309691,48.462557],[-123.308061,48.462563],[-123.308084,48.463678],[-123.308703,48.464644],[-123.310558,48.465643],[-123.312898,48.465811],[-123.31505,48.465071],[-123.316146,48.463868],[-123.316321,48.46308],[-123.316049,48.462087],[-123.314376,48.460609],[-123.315509,48.459146],[-123.316538,48.459118],[-123.321408,48.4605],[-123.323611,48.460609],[-123.32953,48.460237],[-123.331588,48.458668],[-123.332981,48.458496],[-123.33323,48.448152],[-123.343962,48.448347],[-123.344527,48.447244]]},"properties":{"campus":"uvic","kind":"centre","target":"vsac","method":"road","distance_m":5149,"duration_s":588,"straight_km":3}},{"type":"Feature","geometry":{"type":"LineString","coordinates":[[-123.309691,48.462557],[-123.308061,48.462563],[-123.308084,48.463678],[-123.308882,48.464808],[-123.31077,48.465696],[-123.312231,48.465856],[-123.313933,48.465599],[-123.315148,48.465008],[-123.316037,48.464082],[-123.316321,48.46308],[-123.316105,48.462199],[-123.314376,48.460609],[-123.315787,48.458037],[-123.314426,48.455668],[-123.314349,48.454697],[-123.316577,48.450387],[-123.318827,48.449244],[-123.321715,48.446898],[-123.322405,48.432167],[-123.325703,48.431515],[-123.325703,48.432063],[-123.326386,48.432114],[-123.326998,48.431861],[-123.326901,48.432369]]},"properties":{"campus":"uvic","kind":"hospital_24h","target":"ih-royal-jubilee","method":"road","distance_m":5348,"duration_s":621,"straight_km":3.5}},{"type":"Feature","geometry":{"type":"LineString","coordinates":[[-123.080377,49.264265],[-123.077495,49.264241],[-123.077645,49.262332],[-123.059016,49.262248],[-123.055561,49.261938],[-123.032571,49.261832],[-123.030349,49.262315],[-123.02577,49.264933],[-123.022905,49.265605],[-123.006023,49.266429],[-123.006024,49.264948],[-123.005761,49.264948]]},"properties":{"campus":"vcc","kind":"centre","target":"cameray-sas","method":"road","distance_m":5979,"duration_s":629,"straight_km":5.4}},{"type":"Feature","geometry":{"type":"LineString","coordinates":[[-123.080377,49.264265],[-123.081404,49.264286],[-123.081379,49.262414],[-123.095219,49.262527],[-123.096699,49.262783],[-123.099511,49.262864],[-123.100965,49.264614],[-123.11308,49.264826],[-123.114905,49.264951],[-123.11494,49.264078],[-123.121801,49.264244],[-123.121873,49.262357],[-123.122705,49.262372],[-123.122735,49.261898]]},"properties":{"campus":"vcc","kind":"hospital_24h","target":"vch-vgh-sas","method":"road","distance_m":3778,"duration_s":470,"straight_km":3.1}},{"type":"Feature","geometry":{"type":"LineString","coordinates":[[-123.965624,49.157895],[-123.970398,49.14455],[-123.934034,49.133787],[-123.893176,49.103214],[-123.8573,49.017172],[-123.811948,48.991374],[-123.747175,48.917413],[-123.703491,48.886764],[-123.723123,48.850245],[-123.716623,48.799481],[-123.699262,48.782182],[-123.697893,48.766465],[-123.632752,48.720867],[-123.611206,48.716276],[-123.561961,48.672648],[-123.526856,48.575048],[-123.559677,48.56739],[-123.572196,48.55636],[-123.555148,48.522533],[-123.551508,48.463127],[-123.511232,48.452891],[-123.480343,48.464928],[-123.417361,48.464097],[-123.37793,48.455133],[-123.370748,48.445045],[-123.344527,48.447244]]},"properties":{"campus":"viu","kind":"centre","target":"vsac","method":"road","distance_m":112739,"duration_s":6393,"straight_km":91.2}},{"type":"Feature","geometry":{"type":"LineString","coordinates":[[-123.965624,49.157895],[-123.965711,49.158463],[-123.966327,49.15903],[-123.961127,49.158998],[-123.96081,49.173396],[-123.962679,49.174356],[-123.964761,49.175852],[-123.966506,49.176602],[-123.968629,49.177396],[-123.972623,49.177774],[-123.977649,49.180511],[-123.977494,49.180692],[-123.974489,49.18097],[-123.971603,49.18043],[-123.97077,49.181609],[-123.972034,49.182326],[-123.972427,49.183174],[-123.970386,49.183356],[-123.968518,49.184006],[-123.968912,49.184861],[-123.96852,49.185098]]},"properties":{"campus":"viu","kind":"hospital_24h","target":"ih-nanaimo-regional","method":"road","distance_m":4939,"duration_s":576,"straight_km":3}}]}
